[
    {
        "Altitude(m)": 605470.797304615,
        "Argument of Periapsis(deg)": 0.0,
        "Eccentricity": 0.0,
        "Inclination(deg)": 60.0,
        "Latitude(deg)": 27.98822987047497,
        "Longitude(deg)": 77.26292260300661,
        "Mean Anomaly(deg)": 147.2727,
        "RAAN(deg)": 15.0,
        "Satellite Name": "Test1 75",
        "Satellite Number": 75,
        "Semi-Major Axis(m)": 6980739.136638005,
        "Time(s)": 0
    },
    {
        "Altitude(m)": 605395.8351850598,
        "Argument of Periapsis(deg)": 0.00010418945913296404,
        "Eccentricity": 0.0,
        "Inclination(deg)": 60.0,
        "Latitude(deg)": 27.473920855000454,
        "Longitude(deg)": 77.61611098405818,
        "Mean Anomaly(deg)": 147.8928061454618,
        "RAAN(deg)": 14.999579950860259,
        "Satellite Name": "Test1 75",
        "Satellite Number": 75,
        "Semi-Major Axis(m)": 6980739.136638005,
        "Time(s)": 10
    },
    {
        "Altitude(m)": 605322.6757184016,
        "Argument of Periapsis(deg)": 0.0002083789182659281,
        "Eccentricity": 0.0,
        "Inclination(deg)": 60.0,
        "Latitude(deg)": 26.958466040221143,
        "Longitude(deg)": 77.96565115024742,
        "Mean Anomaly(deg)": 148.51291229092362,
        "RAAN(deg)": 14.999159901720514,
        "Satellite Name": "Test1 75",
        "Satellite Number": 75,
        "Semi-Major Axis(m)": 6980739.136638005,
        "Time(s)": 20
    },
    {
        "Altitude(m)": 605251.3745791726,
        "Argument of Periapsis(deg)": 0.00031256837739889213,
        "Eccentricity": 0.0,
        "Inclination(deg)": 60.0,
        "Latitude(deg)": 26.441899928624228,
        "Longitude(deg)": 78.31164775156188,
        "Mean Anomaly(deg)": 149.13301843638547,
        "RAAN(deg)": 14.99873985258077,
        "Satellite Name": "Test1 75",
        "Satellite Number": 75,
        "Semi-Major Axis(m)": 6980739.136638005,
        "Time(s)": 30
    },
    {
        "Altitude(m)": 605181.9867139613,
        "Argument of Periapsis(deg)": 0.0004167578365318562,
        "Eccentricity": 0.0,
        "Inclination(deg)": 60.0,
        "Latitude(deg)": 25.924256168399438,
        "Longitude(deg)": 78.65420370550517,
        "Mean Anomaly(deg)": 149.75312458184732,
        "RAAN(deg)": 14.998319803441028,
        "Satellite Name": "Test1 75",
        "Satellite Number": 75,
        "Semi-Major Axis(m)": 6980739.136638005,
        "Time(s)": 40
    },
    {
        "Altitude(m)": 605114.5663124875,
        "Argument of Periapsis(deg)": 0.0005209472956648203,
        "Eccentricity": 0.0,
        "Inclination(deg)": 60.0,
        "Latitude(deg)": 25.40556758599261,
        "Longitude(deg)": 78.99341925321883,
        "Mean Anomaly(deg)": 150.37323072730916,
        "RAAN(deg)": 14.997899754301287,
        "Satellite Name": "Test1 75",
        "Satellite Number": 75,
        "Semi-Major Axis(m)": 6980739.136638005,
        "Time(s)": 50
    },
    {
        "Altitude(m)": 605049.1667789614,
        "Argument of Periapsis(deg)": 0.0006251367547977843,
        "Eccentricity": 0.0,
        "Inclination(deg)": 60.0,
        "Latitude(deg)": 24.88586621754364,
        "Longitude(deg)": 79.32939252768035,
        "Mean Anomaly(deg)": 150.99333687277095,
        "RAAN(deg)": 14.997479705161544,
        "Satellite Name": "Test1 75",
        "Satellite Number": 75,
        "Semi-Major Axis(m)": 6980739.136638005,
        "Time(s)": 60
    },
    {
        "Altitude(m)": 604985.8407038079,
        "Argument of Periapsis(deg)": 0.0007293262139307483,
        "Eccentricity": 0.0,
        "Inclination(deg)": 60.0,
        "Latitude(deg)": 24.365183339247487,
        "Longitude(deg)": 79.66222012104382,
        "Mean Anomaly(deg)": 151.6134430182328,
        "RAAN(deg)": 14.997059656021802,
        "Satellite Name": "Test1 75",
        "Satellite Number": 75,
        "Semi-Major Axis(m)": 6980739.136638005,
        "Time(s)": 70
    },
    {
        "Altitude(m)": 604924.6398357669,
        "Argument of Periapsis(deg)": 0.0008335156730637124,
        "Eccentricity": 0.0,
        "Inclination(deg)": 60.0,
        "Latitude(deg)": 23.843549496675,
        "Longitude(deg)": 79.99199613820103,
        "Mean Anomaly(deg)": 152.23354916369462,
        "RAAN(deg)": 14.996639606882056,
        "Satellite Name": "Test1 75",
        "Satellite Number": 75,
        "Semi-Major Axis(m)": 6980739.136638005,
        "Time(s)": 80
    },
    {
        "Altitude(m)": 604865.6150543126,
        "Argument of Periapsis(deg)": 0.0009377051321966765,
        "Eccentricity": 0.0,
        "Inclination(deg)": 60.0,
        "Latitude(deg)": 23.320994533093266,
        "Longitude(deg)": 80.3188127622718,
        "Mean Anomaly(deg)": 152.85365530915647,
        "RAAN(deg)": 14.996219557742315,
        "Satellite Name": "Test1 75",
        "Satellite Number": 75,
        "Semi-Major Axis(m)": 6980739.136638005,
        "Time(s)": 90
    },
    {
        "Altitude(m)": 604808.8163425176,
        "Argument of Periapsis(deg)": 0.0010418945913296407,
        "Eccentricity": 0.0,
        "Inclination(deg)": 60.0,
        "Latitude(deg)": 22.797547616820644,
        "Longitude(deg)": 80.64276081911898,
        "Mean Anomaly(deg)": 153.47376145461828,
        "RAAN(deg)": 14.995799508602571,
        "Satellite Name": "Test1 75",
        "Satellite Number": 75,
        "Semi-Major Axis(m)": 6980739.136638005,
        "Time(s)": 100
    },
    {
        "Altitude(m)": 604754.2927602631,
        "Argument of Periapsis(deg)": 0.0011460840504626045,
        "Eccentricity": 0.0,
        "Inclination(deg)": 60.0,
        "Latitude(deg)": 22.273237267652195,
        "Longitude(deg)": 80.96392882798789,
        "Mean Anomaly(deg)": 154.09386760008013,
        "RAAN(deg)": 14.99537945946283,
        "Satellite Name": "Test1 75",
        "Satellite Number": 75,
        "Semi-Major Axis(m)": 6980739.136638005,
        "Time(s)": 110
    },
    {
        "Altitude(m)": 604702.0924179229,
        "Argument of Periapsis(deg)": 0.0012502735095955685,
        "Eccentricity": 0.0,
        "Inclination(deg)": 60.0,
        "Latitude(deg)": 21.74809138239203,
        "Longitude(deg)": 81.282403564003,
        "Mean Anomaly(deg)": 154.71397374554195,
        "RAAN(deg)": 14.994959410323089,
        "Satellite Name": "Test1 75",
        "Satellite Number": 75,
        "Semi-Major Axis(m)": 6980739.136638005,
        "Time(s)": 120
    },
    {
        "Altitude(m)": 604652.2624504074,
        "Argument of Periapsis(deg)": 0.0013544629687285324,
        "Eccentricity": 0.0,
        "Inclination(deg)": 60.0,
        "Latitude(deg)": 21.22213725952533,
        "Longitude(deg)": 81.59827061963526,
        "Mean Anomaly(deg)": 155.33407989100377,
        "RAAN(deg)": 14.994539361183342,
        "Satellite Name": "Test1 75",
        "Satellite Number": 75,
        "Semi-Major Axis(m)": 6980739.136638005,
        "Time(s)": 130
    },
    {
        "Altitude(m)": 604604.848991709,
        "Argument of Periapsis(deg)": 0.0014586524278614966,
        "Eccentricity": 0.0,
        "Inclination(deg)": 60.0,
        "Latitude(deg)": 20.69540162306396,
        "Longitude(deg)": 81.91161345225872,
        "Mean Anomaly(deg)": 155.95418603646564,
        "RAAN(deg)": 14.994119312043603,
        "Satellite Name": "Test1 75",
        "Satellite Number": 75,
        "Semi-Major Axis(m)": 6980739.136638005,
        "Time(s)": 140
    },
    {
        "Altitude(m)": 604559.8971498758,
        "Argument of Periapsis(deg)": 0.0015628418869944607,
        "Eccentricity": 0.0,
        "Inclination(deg)": 60.0,
        "Latitude(deg)": 20.167910645598205,
        "Longitude(deg)": 82.22251394354433,
        "Mean Anomaly(deg)": 156.57429218192746,
        "RAAN(deg)": 14.993699262903858,
        "Satellite Name": "Test1 75",
        "Satellite Number": 75,
        "Semi-Major Axis(m)": 6980739.136638005,
        "Time(s)": 150
    },
    {
        "Altitude(m)": 604517.4509824612,
        "Argument of Periapsis(deg)": 0.0016670313461274247,
        "Eccentricity": 0.0,
        "Inclination(deg)": 60.0,
        "Latitude(deg)": 19.639689970586275,
        "Longitude(deg)": 82.53105295781855,
        "Mean Anomaly(deg)": 157.19439832738928,
        "RAAN(deg)": 14.993279213764117,
        "Satellite Name": "Test1 75",
        "Satellite Number": 75,
        "Semi-Major Axis(m)": 6980739.136638005,
        "Time(s)": 160
    },
    {
        "Altitude(m)": 604477.5534724606,
        "Argument of Periapsis(deg)": 0.0017712208052603888,
        "Eccentricity": 0.0,
        "Inclination(deg)": 60.0,
        "Latitude(deg)": 19.11076473391179,
        "Longitude(deg)": 82.83730938651819,
        "Mean Anomaly(deg)": 157.8145044728511,
        "RAAN(deg)": 14.992859164624372,
        "Satellite Name": "Test1 75",
        "Satellite Number": 75,
        "Semi-Major Axis(m)": 6980739.136638005,
        "Time(s)": 170
    },
    {
        "Altitude(m)": 604440.2465047315,
        "Argument of Periapsis(deg)": 0.001875410264393353,
        "Eccentricity": 0.0,
        "Inclination(deg)": 60.0,
        "Latitude(deg)": 18.581159584740014,
        "Longitude(deg)": 83.14136070450027,
        "Mean Anomaly(deg)": 158.43461061831295,
        "RAAN(deg)": 14.99243911548463,
        "Satellite Name": "Test1 75",
        "Satellite Number": 75,
        "Semi-Major Axis(m)": 6980739.136638005,
        "Time(s)": 180
    },
    {
        "Altitude(m)": 604405.5708429473,
        "Argument of Periapsis(deg)": 0.0019795997235263173,
        "Eccentricity": 0.0,
        "Inclination(deg)": 60.0,
        "Latitude(deg)": 18.050898705701282,
        "Longitude(deg)": 83.44328352534465,
        "Mean Anomaly(deg)": 159.05471676377476,
        "RAAN(deg)": 14.992019066344888,
        "Satellite Name": "Test1 75",
        "Satellite Number": 75,
        "Semi-Major Axis(m)": 6980739.136638005,
        "Time(s)": 190
    }
]